[{"OBJECT_NAME":"STARLINK-5812","OBJECT_ID":"2023-028AK","EPOCH":"2026-03-09T19:40:09.034464","MEAN_MOTION":14.98342308,"ECCENTRICITY":0.00028696,"INCLINATION":69.9995,"RA_OF_ASC_NODE":224.0828,"ARG_OF_PERICENTER":264.2118,"MEAN_ANOMALY":95.8714,"EPHEMERIS_TYPE":0,"CLASSIFICATION_TYPE":"U","NORAD_CAT_ID":55774,"ELEMENT_SET_NO":999,"REV_AT_EPOCH":16655,"BSTAR":0.00015065307,"MEAN_MOTION_DOT":1.706e-5,"MEAN_MOTION_DDOT":0},{"OBJECT_NAME":"FENGYUN 1C DEB","OBJECT_ID":"1999-025AHJ","EPOCH":"2026-03-09T18:03:49.415328","MEAN_MOTION":14.96033857,"ECCENTRICITY":0.01248359,"INCLINATION":98.7826,"RA_OF_ASC_NODE":350.0057,"ARG_OF_PERICENTER":174.7814,"MEAN_ANOMALY":185.4738,"EPHEMERIS_TYPE":0,"CLASSIFICATION_TYPE":"U","NORAD_CAT_ID":30496,"ELEMENT_SET_NO":999,"REV_AT_EPOCH":2444,"BSTAR":0.00050780955,"MEAN_MOTION_DOT":6.595e-5,"MEAN_MOTION_DDOT":0}]
